[{"OBJECT_NAME":"YUNHAI-2 02C","OBJECT_ID":"2024-052C","EPOCH":"2026-03-09T21:21:30.207744","MEAN_MOTION":14.27924657,"ECCENTRICITY":0.00066764,"INCLINATION":50.0079,"RA_OF_ASC_NODE":203.2069,"ARG_OF_PERICENTER":173.1854,"MEAN_ANOMALY":186.9153,"EPHEMERIS_TYPE":0,"CLASSIFICATION_TYPE":"U","NORAD_CAT_ID":59282,"ELEMENT_SET_NO":999,"REV_AT_EPOCH":10061,"BSTAR":0.00014036663,"MEAN_MOTION_DOT":1.89e-6,"MEAN_MOTION_DDOT":0},{"OBJECT_NAME":"SCOUT A DEB","OBJECT_ID":"1970-067C","EPOCH":"2026-03-09T11:32:29.269248","MEAN_MOTION":14.31358883,"ECCENTRICITY":0.00203312,"INCLINATION":89.9425,"RA_OF_ASC_NODE":251.7496,"ARG_OF_PERICENTER":289.2821,"MEAN_ANOMALY":70.6176,"EPHEMERIS_TYPE":0,"CLASSIFICATION_TYPE":"U","NORAD_CAT_ID":5036,"ELEMENT_SET_NO":999,"REV_AT_EPOCH":84230,"BSTAR":0.0011110448,"MEAN_MOTION_DOT":2.96e-5,"MEAN_MOTION_DDOT":0}]
